NORAD_CAT_ID,OBJECT_NAME,OBJECT_TYPE,EPOCH,MEAN_MOTION,ECCENTRICITY,INCLINATION,RA_OF_ASC_NODE,ARG_OF_PERICENTER,MEAN_ANOMALY,BSTAR,MEAN_MOTION_DOT,MEAN_MOTION_DDOT,TLE_LINE0,TLE_LINE1,TLE_LINE2,SEMIMAJOR_AXIS,PERIOD,APOGEE,PERIGEE,DECAYED
53250.0,STARLINK-4059,PAYLOAD,2022-07-28 20:00:01,15.89341781,0.0039109,53.2175,22.4272,52.6981,335.603,-0.0041741,-0.01323272,0.00049629,0 STARLINK-4059,1 53250U 22086J   22209.83334491 -.01323272  49629-3 -41741-2 0  9997,2 53250  53.2175  22.4272 0039109  52.6981 335.6030 15.89341781  1303,6682.264,90.604,330.2630000000001,277.996,0.0
53250.0,STARLINK-4059,PAYLOAD,2022-07-29 06:00:00,15.88276973,0.0034518,53.2177,20.3153,54.8952,197.9879,-0.0047196999999999,-0.01394471,0.00054067,0 STARLINK-4059,1 53250U 22086J   22210.25001157 -.01394471  54067-3 -47197-2 0  9997,2 53250  53.2177  20.3153 0034518  54.8952 197.9879 15.88276973  1366,6685.25,90.664,330.19199999999995,284.039,0.0
53250.0,STARLINK-4059,PAYLOAD,2022-07-29 14:00:01,15.8737703,0.0031037,53.2177,18.6301,54.7079,304.6678,-0.0048284,-0.01350153,0.00050554,0 STARLINK-4059,1 53250U 22086J   22210.58334491 -.01350153  50554-3 -48284-2 0  9997,2 53250  53.2177  18.6301 0031037  54.7079 304.6678 15.87377030  1306,6687.776999999999,90.716,330.399,288.885,0.0
53250.0,STARLINK-4059,PAYLOAD,2022-07-29 22:00:00,15.86477132,0.0027486999999999,53.2173,16.9486,55.6426,49.1689,-0.004925,-0.01305637,0.0004717,0 STARLINK-4059,1 53250U 22086J   22210.91667824 -.01305637  47170-3 -49250-2 0  9994,2 53250  53.2173  16.9486 0027487  55.6426  49.1689 15.86477132  1471,6690.306,90.767,330.56,293.781,0.0
53250.0,STARLINK-4059,PAYLOAD,2022-07-30 06:00:00,15.85631555,0.0024234,53.2175,15.2652,55.3739,153.8009,-0.0054488,-0.01375148,0.00051454,0 STARLINK-4059,1 53250U 22086J   22211.25001157 -.01375148  51454-3 -54488-2 0  9996,2 53250  53.2175  15.2652 0024234  55.3739 153.8009 15.85631555  1526,6692.684,90.816,330.76800000000014,298.33,0.0
53250.0,STARLINK-4059,PAYLOAD,2022-07-30 14:00:01,15.84756342,0.0020323,53.2176,13.5867,53.9809,258.5098,-0.00576,-0.01218537,0.0,0 STARLINK-4059,1 53250U 22086J   22211.58334491 -.01218537  00000-0 -57600-2 0  9997,2 53250  53.2176  13.5867 0020323  53.9809 258.5098 15.84756342  1301,6695.148,90.866,330.619,303.406,0.0
53250.0,STARLINK-4059,PAYLOAD,2022-07-30 22:00:00,15.83846595,0.0017917,53.2174,11.9113,54.8313,359.9304,-0.0057522,-0.01165535,0.0,0 STARLINK-4059,1 53250U 22086J   22211.91667824 -.01165535  00000-0 -57522-2 0  9995,2 53250  53.2174  11.9113 0017917  54.8313 359.9304 15.83846595  1631,6697.7109999999975,90.918,331.577,307.576,0.0
53250.0,STARLINK-4059,PAYLOAD,2022-07-31 14:00:01,15.82124879,0.0011627,53.2175,8.562999999999999,49.7004,206.404,-0.0066476,-0.01243531,0.0,0 STARLINK-4059,1 53250U 22086J   22212.58334491 -.01243531  00000-0 -66476-2 0  9991,2 53250  53.2175   8.5630 0011627  49.7004 206.4040 15.82124879  1737,6702.57,91.017,332.228,316.642,0.0
53250.0,STARLINK-4059,PAYLOAD,2022-07-31 22:00:00,15.81229134,0.0008033,53.2171,6.8939,45.2285,309.9739,-0.0067699,-0.01212777,0.0,0 STARLINK-4059,1 53250U 22086J   22212.91667824 -.01212777  00000-0 -67699-2 0  9993,2 53250  53.2171   6.8939 0008033  45.2285 309.9739 15.81229134  1301,6705.101,91.068,332.352,321.579,0.0
53250.0,STARLINK-4059,PAYLOAD,2022-08-01 04:00:00,15.80576595,0.0005635,53.2175,5.6408,36.0342,302.7942,-0.0070608999999999,-0.01222975,0.0,0 STARLINK-4059,1 53250U 22086J   22213.16667824 -.01222975  00000-0 -70609-2 0  9997,2 53250  53.2175   5.6408 0005635  36.0342 302.7942 15.80576595  1829,6706.946,91.106,332.59,325.032,0.0
53250.0,STARLINK-4059,PAYLOAD,2022-08-01 14:00:01,15.7947204,0.0004123,53.2177,3.5585,18.6492,171.5716,-0.0073536999999999,-0.01210417,0.0,0 STARLINK-4059,1 53250U 22086J   22213.58334491 -.01210417  00000-0 -73537-2 0  9995,2 53250  53.2177   3.5585 0004123  18.6492 171.5716 15.79472040  1309,6710.073,91.17,334.704,329.171,0.0
53250.0,STARLINK-4059,PAYLOAD,2022-08-01 22:00:00,15.78594326,0.0003266999999999,53.2173,1.8957,6.7571,279.3873,-0.0076633,-0.01210929,0.0,0 STARLINK-4059,1 53250U 22086J   22213.91667824 -.01210929  00000-0 -76633-2 0  9999,2 53250  53.2173   1.8957 0003267   6.7571 279.3873 15.78594326  1945,6712.56,91.22,336.61800000000005,332.232,0.0
53250.0,STARLINK-4059,PAYLOAD,2022-08-02 14:00:01,15.76833342,0.0003584,53.2173,358.5737,4.9441,109.8836,-0.0082544,-0.0120546,0.0,0 STARLINK-4059,1 53250U 22086J   22214.58334491 -.01205460  00000-0 -82544-2 0  9996,2 53250  53.2173 358.5737 0003584   4.9441 109.8836 15.76833342  2052,6717.556,91.322,341.829,337.014,0.0
53250.0,STARLINK-4059,PAYLOAD,2022-08-03 06:00:00,15.7506718,0.0004836,53.2174,355.2599,328.1787,331.1097,-0.0088006,-0.0119099999999999,0.0,0 STARLINK-4059,1 53250U 22086J   22215.25001157 -.01191000  00000-0 -88006-2 0  9994,2 53250  53.2174 355.2599 0004836 328.1787 331.1097 15.75067180  2156,6722.5769999999975,91.425,347.6930000000001,341.191,0.0
53250.0,STARLINK-4059,PAYLOAD,2022-08-03 14:00:01,15.74079571,0.0002387,53.2177,353.6082,330.9263,59.0226,-0.006717,-0.00883187,0.0,0 STARLINK-4059,1 53250U 22086J   22215.58334491 -.00883187  00000-0 -67170-2 0  9992,2 53250  53.2177 353.6082 0002387 330.9263  59.0226 15.74079571  1309,6725.389,91.482,348.8590000000001,345.648,0.0
53250.0,STARLINK-4059,PAYLOAD,2022-08-03 22:00:01,15.73303936,0.0001135,53.2172,351.9577,264.4615,215.159,-0.001144,-0.00158878,0.0,0 STARLINK-4059,1 53250U 22086J   22215.91668981 -.00158878  00000-0 -11440-2 0  9994,2 53250  53.2172 351.9577 0001135 264.4615 215.1590 15.73303936  2265,6727.599,91.527,350.227,348.7,0.0
53250.0,STARLINK-4059,PAYLOAD,2022-08-04 06:00:00,15.73357501,0.0001587,53.2177,350.3073,287.0115,281.4323,-0.0015089,-0.00208631,0.0,0 STARLINK-4059,1 53250U 22086J   22216.25001157 -.00208631  00000-0 -15089-2 0  9994,2 53250  53.2177 350.3073 0001587 287.0115 281.4323 15.73357501  2314,6727.446,91.524,350.379,348.244,0.0
53250.0,STARLINK-4059,PAYLOAD,2022-08-04 12:00:00,15.7320234,0.0001406999999999,53.2175,349.07,291.6357,253.6035,2.2686e-05,2.565e-05,0.0,0 STARLINK-4059,1 53250U 22086J   22216.50001157  .00002565  00000-0  22686-4 0  9991,2 53250  53.2175 349.0700 0001407 291.6357 253.6035 15.73202340  2359,6727.889,91.533,350.7,348.807,0.0
53250.0,STARLINK-4059,PAYLOAD,2022-08-04 14:00:01,15.73203115,0.0001401,53.2173,348.6583,292.9425,4.5292,1.7343e-05,1.815e-05,0.0,0 STARLINK-4059,1 53250U 22086J   22216.58334491  .00001815  00000-0  17343-4 0  9990,2 53250  53.2173 348.6583 0001401 292.9425   4.5292 15.73203115  1308,6727.886,91.533,350.694,348.809,0.0
53250.0,STARLINK-4059,PAYLOAD,2022-08-04 22:00:00,15.73220996,0.0001701,53.2193,347.0119,298.7128,87.7428,-3.5727e-05,-5.636e-05,0.0,0 STARLINK-4059,1 53250U 22086J   22216.91667824 -.00005636  00000-0 -35727-4 0  9999,2 53250  53.2193 347.0119 0001701 298.7128  87.7428 15.73220996  1305,6727.835,91.532,350.845,348.556,0.0
53250.0,STARLINK-4059,PAYLOAD,2022-08-05 14:00:01,15.73247452,0.0001475,53.2196,343.7125,309.3068,255.1193,-0.00059718,-0.00083771,0.0,0 STARLINK-4059,1 53250U 22086J   22217.58335648 -.00083771  00000-0 -59718-3 0  9990,2 53250  53.2196 343.7125 0001475 309.3068 255.1193 15.73247452  1304,6727.76,91.53,350.617,348.6330000000001,0.0
53250.0,STARLINK-4059,PAYLOAD,2022-08-05 22:00:00,15.7323068,0.0001514,53.219,342.0631,315.3794,337.9337,-0.00020514,-0.00029348,0.0,0 STARLINK-4059,1 53250U 22086J   22217.91667824 -.00029348  00000-0 -20514-3 0  9993,2 53250  53.2190 342.0631 0001514 315.3794 337.9337 15.73230680  2573,6727.808000000001,91.531,350.691,348.654,0.0
53250.0,STARLINK-4059,PAYLOAD,2022-08-06 14:00:01,15.7319669,0.0001378,53.2191,338.7643,323.9186,147.2626,5.9366e-05,7.718e-05,0.0,0 STARLINK-4059,1 53250U 22086J   22218.58334491  .00007718  00000-0  59366-4 0  9991,2 53250  53.2191 338.7643 0001378 323.9186 147.2626 15.73196690  1302,6727.905,91.533,350.69699999999995,348.843,0.0
53250.0,STARLINK-4059,PAYLOAD,2022-08-06 21:09:11,15.73165017,0.0001530999999999,53.2196,337.2883,341.2146,18.8817,-0.00018027,-0.00025805,0.0,0 STARLINK-4059,1 53250U 22086J   22218.88138803 -.00025805  00000-0 -18027-3 0  9990,2 53250  53.2196 337.2883 0001531 341.2146  18.8817 15.73165017  2931,6727.995,91.535,350.89,348.83,0.0
53250.0,STARLINK-4059,PAYLOAD,2022-08-06 22:00:00,15.7325326,0.000145,53.2193,337.1149,329.8595,230.2403,-0.00065359,-0.00091564,0.0,0 STARLINK-4059,1 53250U 22086J   22218.91667824 -.00091564  00000-0 -65359-3 0  9999,2 53250  53.2193 337.1149 0001450 329.8595 230.2403 15.73253260  2739,6727.743,91.53,350.584,348.6330000000001,0.0
53250.0,STARLINK-4059,PAYLOAD,2022-08-07 04:46:35,15.73233982,0.0001356,53.2196,335.7163,325.1646,34.9285,0.00026492,0.00036776,0.0,0 STARLINK-4059,1 53250U 22086J   22219.19901794  .00036776  00000-0  26492-3 0  9994,2 53250  53.2196 335.7163 0001356 325.1646  34.9285 15.73233982  2773,6727.7980000000025,91.531,350.576,348.751,0.0
53250.0,STARLINK-4059,PAYLOAD,2022-08-07 12:23:59,15.73222281,0.0001267,53.2196,334.1445,336.3769,23.7193,0.00017334,0.00023799,0.0,0 STARLINK-4059,1 53250U 22086J   22219.51666060  .00023799  00000-0  17334-3 0  9990,2 53250  53.2196 334.1445 0001267 336.3769  23.7193 15.73222281  2820,6727.831999999999,91.532,350.5490000000001,348.844,0.0
53250.0,STARLINK-4059,PAYLOAD,2022-08-07 21:32:52,15.73213157,0.0001505,53.2197,332.2582,348.2823,11.8162,0.00011231,0.00015179,0.0,0 STARLINK-4059,1 53250U 22086J   22219.89782914  .00015179  00000-0  11231-3 0  9991,2 53250  53.2197 332.2582 0001505 348.2823  11.8162 15.73213157  3096,6727.858,91.532,350.735,348.71,0.0
53250.0,STARLINK-4059,PAYLOAD,2022-08-07 22:00:00,15.73269524,0.0001561999999999,53.2181,332.1648,348.5009,118.3992,-0.0013538,-0.00187017,0.0,0 STARLINK-4059,1 53250U 22086J   22219.91667824 -.00187017  00000-0 -13538-2 0  9990,2 53250  53.2181 332.1648 0001562 348.5009 118.3992 15.73269524  2893,6727.696999999999,91.529,350.61300000000006,348.511,0.0
